INTELSAT 23 (IS-23)     
1 38867U 12057A   26195.18664999 -.00000291  00000+0  00000+0 0  9993
2 38867   0.0157  27.7388 0000348 163.8403 114.6764  1.00273717 50228
FM-6                    
1 39360U 13058A   26194.96565502 -.00000021  00000+0  00000+0 0  9990
2 39360   0.0142  33.4803 0001390 144.8410 344.7900  1.00270909 46348
INTELSAT 30 (IS-30)     
1 40271U 14062A   26194.82722560 -.00000156  00000+0  00000+0 0  9992
2 40271   0.0159  46.9890 0001469 332.6212 114.8422  1.00270855  7069
DIRECTV 14              
1 40333U 14078B   26194.89775758 -.00000131  00000+0  00000+0 0  9995
2 40333   0.0140  47.5752 0000380 275.2866 192.8529  1.00271910 42314
DIRECTV 15              
1 40663U 15026A   26194.51503031 -.00000106  00000+0  00000+0 0  9999
2 40663   0.0179  71.5022 0000065 256.9146  45.5133  1.00272384 40720
SKY MEXICO-1            
1 40664U 15026B   26195.18936088 -.00000241  00000+0  00000+0 0  9996
2 40664   0.0180  30.3762 0002348 105.2660 145.7779  1.00270306 40721
INTELSAT 34 (IS-34)     
1 40874U 15039A   26195.18827530 -.00000292  00000+0  00000+0 0  9990
2 40874   0.0098 346.5105 0000568  13.5450 304.2908  1.00271227 39902
INTELSAT 31 (IS-31)     
1 41581U 16035A   26194.89862426 -.00000156  00000+0  00000+0 0  9992
2 41581   0.0229 276.7908 0001186  13.0074 230.4271  1.00270917 36953
INTELSAT 36 (IS-36)     
1 41747U 16053A   26195.14488174 -.00000030  00000+0  00000+0 0  9990
2 41747   0.0103  26.0683 0002449 313.5040  73.0751  1.00270140 36220
INTELSAT 32E (IS-32E)   
1 41945U 17007B   26194.76633344  .00000000  00000+0  00000+0 0  9994
2 41945   0.0235  44.2470 0000485 284.5035 195.6038  1.00269936 34498
INTELSAT 35E (IS-35E)   
1 42818U 17041A   26195.12451497  .00000000  00000+0  00000+0 0  9990
2 42818   0.0246  51.2406 0001616  59.4902 191.5916  1.00267333 33089
INTELSAT 37E (IS-37E)   
1 42950U 17059A   26195.12772163 -.00000147  00000+0  00000+0 0  9995
2 42950   0.0035 114.7684 0002563   8.7643 196.4277  1.00269770 32334
AZERSPACE 2 (IS-38)     
1 43632U 18074A   26195.14028838  .00000000  00000+0  00000+0 0  9993
2 43632   0.0267  50.4037 0001255  72.8900 264.3361  1.00269941 28718
HORIZONS-3E             
1 43633U 18074B   26194.64002853 -.00000035  00000+0  00000+0 0  9996
2 43633   0.0498 224.9289 0000941  53.6947  52.2963  1.00270118 28609
AT&T T-16               
1 44333U 19034A   26195.11136086 -.00000121  00000+0  00000+0 0  9996
2 44333   0.0135  67.7270 0000619 249.8244 273.6487  1.00268360 25905
INTELSAT 39 (IS-39)     
1 44476U 19049B   26194.92525137  .00000000  00000+0  00000+0 0  9992
2 44476   0.0241  49.4551 0000733 282.1376 355.2527  1.00272225 25393
GALAXY 30 (G-30)        
1 46114U 20056C   26195.19695897  .00000030  00000+0  00000+0 0  9997
2 46114   0.0167  43.3376 0001964  71.7705 122.8498  1.00271477 21562
GALAXY 33 (G-33)        
1 54026U 22128A   26195.21380912  .00000072  00000+0  00000+0 0  9998
2 54026   0.0142  28.6222 0001769  91.7867 115.6389  1.00271849 14010
GALAXY 34 (G-34)        
1 54027U 22128B   26195.03444293  .00000000  00000+0  00000+0 0  9993
2 54027   0.0261  33.5246 0001375 104.8252  36.9621  1.00271694 14181
GALAXY 31 (G-31)        
1 54243U 22153A   26195.21845464  .00000007  00000+0  00000+0 0  9993
2 54243   0.0161  68.2238 0000962  51.4702 130.0140  1.00270892  7402
GALAXY 32 (G-32)        
1 54244U 22153B   26194.50947838 -.00000178  00000+0  00000+0 0  9993
2 54244   0.0121  29.6563 0001400  18.1075 336.0269  1.00269974 13408
GALAXY 35 (G-35)        
1 54741U 22170A   26195.12540637  .00000000  00000+0  00000+0 0  9992
2 54741   0.0266  69.7707 0001918  47.6160 126.6479  1.00268459 13167
GALAXY 36 (G-36)        
1 54742U 22170B   26194.97111506 -.00000191  00000+0  00000+0 0  9996
2 54742   0.0093 133.9399 0002386 326.3362  92.1618  1.00270487 13041
GALAXY 37 (G-37)        
1 57493U 23112A   26194.96357501  .00000042  00000+0  00000+0 0  9999
2 57493   0.0218  73.5270 0001739  44.1230  34.0616  1.00271325 10810
