OBJECT_NAME,OBJECT_ID,EPOCH,MEAN_MOTION,ECCENTRICITY,INCLINATION,RA_OF_ASC_NODE,ARG_OF_PERICENTER,MEAN_ANOMALY,EPHEMERIS_TYPE,CLASSIFICATION_TYPE,NORAD_CAT_ID,ELEMENT_SET_NO,REV_AT_EPOCH,BSTAR,MEAN_MOTION_DOT,MEAN_MOTION_DDOT
INTELSAT 23 (IS-23),2012-057A,2026-07-14T04:28:46.559136,1.00273717,.0000348,0.0157,27.7388,163.8403,114.6764,0,U,38867,999,5022,0,-.291E-5,0
FM-6,2013-058A,2026-07-13T23:10:32.593728,1.00270909,.000139,0.0142,33.4803,144.8410,344.7900,0,U,39360,999,4634,0,-.21E-6,0
INTELSAT 30 (IS-30),2014-062A,2026-07-13T19:51:12.291840,1.00270855,.0001469,0.0159,46.9890,332.6212,114.8422,0,U,40271,999,706,0,-.156E-5,0
DIRECTV 14,2014-078B,2026-07-13T21:32:46.254912,1.00271910,.000038,0.0140,47.5752,275.2866,192.8529,0,U,40333,999,4231,0,-.131E-5,0
DIRECTV 15,2015-026A,2026-07-13T12:21:38.618784,1.00272384,.00000657,0.0179,71.5022,256.9146,45.5133,0,U,40663,999,4072,0,-.106E-5,0
SKY MEXICO-1,2015-026B,2026-07-14T04:32:40.780032,1.00270306,.0002348,0.0180,30.3762,105.2660,145.7779,0,U,40664,999,4072,0,-.241E-5,0
INTELSAT 34 (IS-34),2015-039A,2026-07-14T04:31:06.985920,1.00271227,.0000568,0.0098,346.5105,13.5450,304.2908,0,U,40874,999,3990,0,-.292E-5,0
INTELSAT 31 (IS-31),2016-035A,2026-07-13T21:34:01.136064,1.00270917,.0001186,0.0229,276.7908,13.0074,230.4271,0,U,41581,999,3695,0,-.156E-5,0
INTELSAT 36 (IS-36),2016-053A,2026-07-14T03:28:37.782336,1.00270140,.0002449,0.0103,26.0683,313.5040,73.0751,0,U,41747,999,3622,0,-.3E-6,0
INTELSAT 32E (IS-32E),2017-007B,2026-07-13T18:23:31.209216,1.00269936,.0000485,0.0235,44.2470,284.5035,195.6038,0,U,41945,999,3449,0,0,0
INTELSAT 35E (IS-35E),2017-041A,2026-07-14T02:59:18.093408,1.00267333,.0001616,0.0246,51.2406,59.4902,191.5916,0,U,42818,999,3308,0,0,0
INTELSAT 37E (IS-37E),2017-059A,2026-07-14T03:03:55.148832,1.00269770,.0002563,0.0035,114.7684,8.7643,196.4277,0,U,42950,999,3233,0,-.147E-5,0
AZERSPACE 2 (IS-38),2018-074A,2026-07-14T03:22:00.916032,1.00269941,.0001255,0.0267,50.4037,72.8900,264.3361,0,U,43632,999,2871,0,0,0
HORIZONS-3E,2018-074B,2026-07-13T15:21:38.464992,1.00270118,.0000941,0.0498,224.9289,53.6947,52.2963,0,U,43633,999,2860,0,-.35E-6,0
AT&T T-16,2019-034A,2026-07-14T02:40:21.578304,1.00268360,.0000619,0.0135,67.7270,249.8244,273.6487,0,U,44333,999,2590,0,-.121E-5,0
INTELSAT 39 (IS-39),2019-049B,2026-07-13T22:12:21.718368,1.00272225,.0000733,0.0241,49.4551,282.1376,355.2527,0,U,44476,999,2539,0,0,0
GALAXY 30 (G-30),2020-056C,2026-07-14T04:43:37.255008,1.00271477,.0001964,0.0167,43.3376,71.7705,122.8498,0,U,46114,999,2156,0,.3E-6,0
GALAXY 33 (G-33),2022-128A,2026-07-14T05:07:53.107968,1.00271849,.0001769,0.0142,28.6222,91.7867,115.6389,0,U,54026,999,1401,0,.72E-6,0
GALAXY 34 (G-34),2022-128B,2026-07-14T00:49:35.869152,1.00271694,.0001375,0.0261,33.5246,104.8252,36.9621,0,U,54027,999,1418,0,0,0
GALAXY 31 (G-31),2022-153A,2026-07-14T05:14:34.480896,1.00270892,.0000962,0.0161,68.2238,51.4702,130.0140,0,U,54243,999,740,0,.7E-7,0
GALAXY 32 (G-32),2022-153B,2026-07-13T12:13:38.932032,1.00269974,.00014004,0.0121,29.6563,18.1075,336.0269,0,U,54244,999,1340,0,-.178E-5,0
GALAXY 35 (G-35),2022-170A,2026-07-14T03:00:35.110368,1.00268459,.0001918,0.0266,69.7707,47.6160,126.6479,0,U,54741,999,1316,0,0,0
GALAXY 36 (G-36),2022-170B,2026-07-13T23:18:24.341184,1.00270487,.0002386,0.0093,133.9399,326.3362,92.1618,0,U,54742,999,1304,0,-.191E-5,0
GALAXY 37 (G-37),2023-112A,2026-07-13T23:07:32.880864,1.00271325,.0001739,0.0218,73.5270,44.1230,34.0616,0,U,57493,999,1081,0,.42E-6,0
